{"type": "FeatureCollection", "features": [ {"type": "Feature", "properties": {"norad_id": 66534, "name": "STARLINK-35976", "group": "last-30-days", "lat": 9.246572221933107, "lon": 82.2442718926146, "alt_km": 409.8814349272543, "timestamp": "2025-12-09T14:52:24.941701+00:00", "meta": {"OBJECT_NAME": "STARLINK-35976", "OBJECT_ID": "2025-265U", "EPOCH": "2025-12-09T06:00:02.000160", "MEAN_MOTION": 15.53419131, "ECCENTRICITY": 0.00016488, "INCLINATION": 43.0002, "RA_OF_ASC_NODE": 74.3526, "ARG_OF_PERICENTER": 274.6458, "MEAN_ANOMALY": 190.0341, "EPHEMERIS_TYPE": 0, "CLASSIFICATION_TYPE": "U", "NORAD_CAT_ID": 66534, "ELEMENT_SET_NO": 999, "REV_AT_EPOCH": 443, "BSTAR": -0.031939025, "MEAN_MOTION_DOT": -0.01838075, "MEAN_MOTION_DDOT": 0}, "tle": {"line1": "1 66534U 25265U   25343.25002315 -.01838075  00000+0 -31939-1 0  9998", "line2": "2 66534  43.0002  74.3526 0001648 274.6458 190.0341 15.53419131  4439"}}, "geometry": {"type": "Point", "coordinates": [82.2442718926146, 9.246572221933107]}}, {"type": "Feature", "properties": {"norad_id": 66535, "name": "STARLINK-35514", "group": "last-30-days", "lat": 10.52985978450961, "lon": 83.68404571700728, "alt_km": 409.75495489058085, "timestamp": "2025-12-09T14:52:24.941711+00:00", "meta": {"OBJECT_NAME": "STARLINK-35514", "OBJECT_ID": "2025-265V", "EPOCH": "2025-12-09T06:00:02.000160", "MEAN_MOTION": 15.53416328, "ECCENTRICITY": 0.00015247, "INCLINATION": 43, "RA_OF_ASC_NODE": 74.3477, "ARG_OF_PERICENTER": 273.3971, "MEAN_ANOMALY": 193.2024, "EPHEMERIS_TYPE": 0, "CLASSIFICATION_TYPE": "U", "NORAD_CAT_ID": 66535, "ELEMENT_SET_NO": 999, "REV_AT_EPOCH": 443, "BSTAR": -0.031905357, "MEAN_MOTION_DOT": -0.01836118, "MEAN_MOTION_DDOT": 0}, "tle": {"line1": "1 66535U 25265V   25343.25002315 -.01836118  00000+0 -31905-1 0  9998", "line2": "2 66535  43.0000  74.3477 0001524 273.3971 193.2024 15.53416328  4430"}}, "geometry": {"type": "Point", "coordinates": [83.68404571700728, 10.52985978450961]}}, {"type": "Feature", "properties": {"norad_id": 66536, "name": "STARLINK-35640", "group": "last-30-days", "lat": 11.808144886757258, "lon": 85.13776509954167, "alt_km": 409.5419039220169, "timestamp": "2025-12-09T14:52:24.941721+00:00", "meta": {"OBJECT_NAME": "STARLINK-35640", "OBJECT_ID": "2025-265W", "EPOCH": "2025-12-09T06:00:02.000160", "MEAN_MOTION": 15.53419598, "ECCENTRICITY": 0.00016683, "INCLINATION": 42.9999, "RA_OF_ASC_NODE": 74.3429, "ARG_OF_PERICENTER": 276.3094, "MEAN_ANOMALY": 192.2022, "EPHEMERIS_TYPE": 0, "CLASSIFICATION_TYPE": "U", "NORAD_CAT_ID": 66536, "ELEMENT_SET_NO": 999, "REV_AT_EPOCH": 441, "BSTAR": -0.031918683, "MEAN_MOTION_DOT": -0.01837079, "MEAN_MOTION_DDOT": 0}, "tle": {"line1": "1 66536U 25265W   25343.25002315 -.01837079  00000+0 -31919-1 0  9991", "line2": "2 66536  42.9999  74.3429 0001668 276.3094 192.2022 15.53419598  4418"}}, "geometry": {"type": "Point", "coordinates": [85.13776509954167, 11.808144886757258]}}, {"type": "Feature", "properties": {"norad_id": 66537, "name": "STARLINK-35582", "group": "last-30-days", "lat": 13.078075376267345, "lon": 86.6039016106058, "alt_km": 409.45347919663254, "timestamp": "2025-12-09T14:52:24.941731+00:00", "meta": {"OBJECT_NAME": "STARLINK-35582", "OBJECT_ID": "2025-265X", "EPOCH": "2025-12-09T06:00:02.000160", "MEAN_MOTION": 15.53418506, "ECCENTRICITY": 0.00015513, "INCLINATION": 43.0001, "RA_OF_ASC_NODE": 74.338, "ARG_OF_PERICENTER": 273.192, "MEAN_ANOMALY": 197.2389, "EPHEMERIS_TYPE": 0, "CLASSIFICATION_TYPE": "U", "NORAD_CAT_ID": 66537, "ELEMENT_SET_NO": 999, "REV_AT_EPOCH": 443, "BSTAR": -0.031914672, "MEAN_MOTION_DOT": -0.01836739, "MEAN_MOTION_DDOT": 0}, "tle": {"line1": "1 66537U 25265X   25343.25002315 -.01836739  00000+0 -31915-1 0  9990", "line2": "2 66537  43.0001  74.3380 0001551 273.1920 197.2389 15.53418506  4436"}}, "geometry": {"type": "Point", "coordinates": [86.6039016106058, 13.078075376267345]}}, {"type": "Feature", "properties": {"norad_id": 66538, "name": "STARLINK-35577", "group": "last-30-days", "lat": 14.340698523917196, "lon": 88.08620447981146, "alt_km": 409.2441315935939, "timestamp": "2025-12-09T14:52:24.941743+00:00", "meta": {"OBJECT_NAME": "STARLINK-35577", "OBJECT_ID": "2025-265Y", "EPOCH": "2025-12-09T06:00:02.000160", "MEAN_MOTION": 15.53419987, "ECCENTRICITY": 0.00017096, "INCLINATION": 43.0001, "RA_OF_ASC_NODE": 74.3327, "ARG_OF_PERICENTER": 276.3232, "MEAN_ANOMALY": 196.0214, "EPHEMERIS_TYPE": 0, "CLASSIFICATION_TYPE": "U", "NORAD_CAT_ID": 66538, "ELEMENT_SET_NO": 999, "REV_AT_EPOCH": 443, "BSTAR": -0.03190537, "MEAN_MOTION_DOT": -0.01836449, "MEAN_MOTION_DDOT": 0}, "tle": {"line1": "1 66538U 25265Y   25343.25002315 -.01836449  00000+0 -31905-1 0  9998", "line2": "2 66538  43.0001  74.3327 0001709 276.3232 196.0214 15.53419987  4432"}}, "geometry": {"type": "Point", "coordinates": [88.08620447981146, 14.340698523917196]}}, {"type": "Feature", "properties": {"norad_id": 66539, "name": "STARLINK-35697", "group": "last-30-days", "lat": 15.593329502194822, "lon": 89.58490113519606, "alt_km": 409.09156049207286, "timestamp": "2025-12-09T14:52:24.941757+00:00", "meta": {"OBJECT_NAME": "STARLINK-35697", "OBJECT_ID": "2025-265Z", "EPOCH": "2025-12-09T06:00:02.000160", "MEAN_MOTION": 15.53416631, "ECCENTRICITY": 0.00016147, "INCLINATION": 43.0002, "RA_OF_ASC_NODE": 74.3278, "ARG_OF_PERICENTER": 275.645, "MEAN_ANOMALY": 198.6195, "EPHEMERIS_TYPE": 0, "CLASSIFICATION_TYPE": "U", "NORAD_CAT_ID": 66539, "ELEMENT_SET_NO": 999, "REV_AT_EPOCH": 443, "BSTAR": -0.031819705, "MEAN_MOTION_DOT": -0.01831825, "MEAN_MOTION_DDOT": 0}, "tle": {"line1": "1 66539U 25265Z   25343.25002315 -.01831825  00000+0 -31820-1 0  9998", "line2": "2 66539  43.0002  74.3278 0001614 275.6450 198.6195 15.53416631  4437"}}, "geometry": {"type": "Point", "coordinates": [89.58490113519606, 15.593329502194822]}}, {"type": "Feature", "properties": {"norad_id": 66540, "name": "STARLINK-35818", "group": "last-30-days", "lat": 16.83585012112464, "lon": 91.1025157158146, "alt_km": 408.9116774628101, "timestamp": "2025-12-09T14:52:24.941769+00:00", "meta": {"OBJECT_NAME": "STARLINK-35818", "OBJECT_ID": "2025-265AA", "EPOCH": "2025-12-09T06:00:02.000160", "MEAN_MOTION": 15.53419651, "ECCENTRICITY": 0.00016274, "INCLINATION": 43.0002, "RA_OF_ASC_NODE": 74.3231, "ARG_OF_PERICENTER": 276.9822, "MEAN_ANOMALY": 199.1978, "EPHEMERIS_TYPE": 0, "CLASSIFICATION_TYPE": "U", "NORAD_CAT_ID": 66540, "ELEMENT_SET_NO": 999, "REV_AT_EPOCH": 443, "BSTAR": -0.031898231, "MEAN_MOTION_DOT": -0.01836015, "MEAN_MOTION_DDOT": 0}, "tle": {"line1": "1 66540U 25265AA  25343.25002315 -.01836015  00000+0 -31898-1 0  9991", "line2": "2 66540  43.0002  74.3231 0001627 276.9822 199.1978 15.53419651  4439"}}, "geometry": {"type": "Point", "coordinates": [91.1025157158146, 16.83585012112464]}}, {"type": "Feature", "properties": {"norad_id": 66541, "name": "STARLINK-35796", "group": "last-30-days", "lat": 18.066572287749118, "lon": 92.63953949164444, "alt_km": 408.7673113035762, "timestamp": "2025-12-09T14:52:24.941780+00:00", "meta": {"OBJECT_NAME": "STARLINK-35796", "OBJECT_ID": "2025-265AB", "EPOCH": "2025-12-09T06:00:02.000160", "MEAN_MOTION": 15.53422833, "ECCENTRICITY": 0.0001647, "INCLINATION": 43, "RA_OF_ASC_NODE": 74.3182, "ARG_OF_PERICENTER": 277.1387, "MEAN_ANOMALY": 200.9573, "EPHEMERIS_TYPE": 0, "CLASSIFICATION_TYPE": "U", "NORAD_CAT_ID": 66541, "ELEMENT_SET_NO": 999, "REV_AT_EPOCH": 443, "BSTAR": -0.032018823, "MEAN_MOTION_DOT": -0.0184236, "MEAN_MOTION_DDOT": 0}, "tle": {"line1": "1 66541U 25265AB  25343.25002315 -.01842360  00000+0 -32019-1 0  9998", "line2": "2 66541  43.0000  74.3182 0001647 277.1387 200.9573 15.53422833  4432"}}, "geometry": {"type": "Point", "coordinates": [92.63953949164444, 18.066572287749118]}}, {"type": "Feature", "properties": {"norad_id": 66542, "name": "STARLINK-35833", "group": "last-30-days", "lat": 19.28542531917491, "lon": 94.1991032759288, "alt_km": 408.56866563580024, "timestamp": "2025-12-09T14:52:24.941790+00:00", "meta": {"OBJECT_NAME": "STARLINK-35833", "OBJECT_ID": "2025-265AC", "EPOCH": "2025-12-09T06:00:02.000160", "MEAN_MOTION": 15.53421291, "ECCENTRICITY": 0.00016602, "INCLINATION": 43.0001, "RA_OF_ASC_NODE": 74.3137, "ARG_OF_PERICENTER": 279.3151, "MEAN_ANOMALY": 200.6994, "EPHEMERIS_TYPE": 0, "CLASSIFICATION_TYPE": "U", "NORAD_CAT_ID": 66542, "ELEMENT_SET_NO": 999, "REV_AT_EPOCH": 443, "BSTAR": -0.032006225, "MEAN_MOTION_DOT": -0.01841634, "MEAN_MOTION_DDOT": 0}, "tle": {"line1": "1 66542U 25265AC  25343.25002315 -.01841634  00000+0 -32006-1 0  9998", "line2": "2 66542  43.0001  74.3137 0001660 279.3151 200.6994 15.53421291  4433"}}, "geometry": {"type": "Point", "coordinates": [94.1991032759288, 19.28542531917491]}}, {"type": "Feature", "properties": {"norad_id": 66543, "name": "STARLINK-35315", "group": "last-30-days", "lat": 20.490742293792813, "lon": 95.7811574996655, "alt_km": 408.46591909522067, "timestamp": "2025-12-09T14:52:24.941823+00:00", "meta": {"OBJECT_NAME": "STARLINK-35315", "OBJECT_ID": "2025-265AD", "EPOCH": "2025-12-09T06:00:02.000160", "MEAN_MOTION": 15.53420011, "ECCENTRICITY": 0.00016385, "INCLINATION": 43.0003, "RA_OF_ASC_NODE": 74.3085, "ARG_OF_PERICENTER": 276.6666, "MEAN_ANOMALY": 205.2646, "EPHEMERIS_TYPE": 0, "CLASSIFICATION_TYPE": "U", "NORAD_CAT_ID": 66543, "ELEMENT_SET_NO": 999, "REV_AT_EPOCH": 432, "BSTAR": -0.031916882, "MEAN_MOTION_DOT": -0.01836993, "MEAN_MOTION_DDOT": 0}, "tle": {"line1": "1 66543U 25265AD  25343.25002315 -.01836993  00000+0 -31917-1 0  9991", "line2": "2 66543  43.0003  74.3085 0001638 276.6666 205.2646 15.53420011  4326"}}, "geometry": {"type": "Point", "coordinates": [95.7811574996655, 20.490742293792813]}}]}